ONEWEB-0249             
1 48967U 21060A   24344.35030525  .00000009  00000+0 -90366-5 0  9991
2 48967  87.9081 339.3188 0001661  90.3015 269.8306 13.16593250166604
ONEWEB-0250             
1 48968U 21060B   24344.75142475  .00000093  00000+0  18335-3 0  9990
2 48968  87.9083 338.8043 0000934  92.4206 267.7037 13.25635184168049
ONEWEB-0252             
1 48970U 21060D   24344.45797026  .00000071  00000+0  15081-3 0  9999
2 48970  87.9083 339.2905 0002064  81.8046 278.3319 13.16595305166661
ONEWEB-0253             
1 48971U 21060E   24344.59886484  .00000026  00000+0  33816-4 0  9999
2 48971  87.9079 339.2709 0001582  81.6272 278.5039 13.16593887166611
ONEWEB-0254             
1 48972U 21060F   24344.45638052  .00000178  00000+0  43325-3 0  9994
2 48972  87.9083 339.2801 0001245  79.3513 280.7758 13.16594494166593
ONEWEB-0255             
1 48973U 21060G   24344.26638897  .00000061  00000+0  12622-3 0  9998
2 48973  87.9082 339.3519 0001433  84.0066 276.1228 13.16593624166646
ONEWEB-0256             
1 48974U 21060H   24344.44448454  .00000174  00000+0  42052-3 0  9992
2 48974  87.9084 339.3251 0001918  86.1646 273.9704 13.16596849166632
ONEWEB-0257             
1 48975U 21060J   24344.40096830  .00000033  00000+0  52626-4 0  9999
2 48975  87.9082 339.2994 0001787  82.0319 278.1015 13.16594536166587
